[{"OBJECT_NAME":"STARLINK-32162","OBJECT_ID":"2024-150Q","EPOCH":"2026-03-09T22:21:33.354720","MEAN_MOTION":15.30180628,"ECCENTRICITY":0.00010689,"INCLINATION":53.1604,"RA_OF_ASC_NODE":306.234,"ARG_OF_PERICENTER":113.1295,"MEAN_ANOMALY":246.9818,"EPHEMERIS_TYPE":0,"CLASSIFICATION_TYPE":"U","NORAD_CAT_ID":60597,"ELEMENT_SET_NO":999,"REV_AT_EPOCH":8807,"BSTAR":8.403127e-6,"MEAN_MOTION_DOT":-1.1e-6,"MEAN_MOTION_DDOT":0},{"OBJECT_NAME":"TLV R\/B","OBJECT_ID":"2023-188B","EPOCH":"2026-03-09T16:54:55.723104","MEAN_MOTION":15.27880264,"ECCENTRICITY":0.01149043,"INCLINATION":46.9277,"RA_OF_ASC_NODE":152.866,"ARG_OF_PERICENTER":233.4436,"MEAN_ANOMALY":125.5857,"EPHEMERIS_TYPE":0,"CLASSIFICATION_TYPE":"U","NORAD_CAT_ID":58501,"ELEMENT_SET_NO":999,"REV_AT_EPOCH":12559,"BSTAR":0.00038559521,"MEAN_MOTION_DOT":0.0001266,"MEAN_MOTION_DDOT":0}]
